{
  "type": "FeatureCollection",
  "features": [
    {
      "type": "Feature",
      "properties": {
        "norad_id": 28051,
        "name": "IRS-P6 (RESOURCESAT-1)",
        "group": "resource",
        "lat": -55.67944260186436,
        "lon": -156.29321904526262,
        "alt_km": 772.8738644739105,
        "timestamp": "2025-12-21T22:41:41.104025+00:00",
        "meta_object_name": "IRS-P6 (RESOURCESAT-1)",
        "meta_object_id": "2003-046A",
        "meta_epoch": "2025-12-21T15:26:40.965216",
        "meta_mean_motion": 14.36078574,
        "meta_eccentricity": 0.00647033,
        "meta_inclination": 98.2166,
        "meta_ra_of_asc_node": 35.638,
        "meta_arg_of_pericenter": 154.036,
        "meta_mean_anomaly": 320.88,
        "meta_ephemeris_type": 0,
        "meta_classification_type": "U",
        "meta_norad_cat_id": 28051,
        "meta_element_set_no": 999,
        "meta_rev_at_epoch": 15504,
        "meta_bstar": 6.783724e-05,
        "meta_mean_motion_dot": 1.61e-06,
        "meta_mean_motion_ddot": 0,
        "tle_line1": "1 28051U 03046A   25355.64352969  .00000161  00000+0  67837-4 0  9995",
        "tle_line2": "2 28051  98.2166  35.6380 0064703 154.0360 320.8800 14.36078574155045"
      },
      "geometry": {
        "type": "Point",
        "coordinates": [
          -156.29321904526262,
          -55.67944260186436
        ]
      }
    },
    {
      "type": "Feature",
      "properties": {
        "norad_id": 28220,
        "name": "SHIYAN-1 (SY-1)",
        "group": "resource",
        "lat": -77.41368183206174,
        "lon": 96.44139194770705,
        "alt_km": 484.5131414699399,
        "timestamp": "2025-12-21T22:41:41.104036+00:00",
        "meta_object_name": "SHIYAN-1 (SY-1)",
        "meta_object_id": "2004-012A",
        "meta_epoch": "2025-12-21T04:11:20.401152",
        "meta_mean_motion": 15.28343782,
        "meta_eccentricity": 0.00052177,
        "meta_inclination": 97.8926,
        "meta_ra_of_asc_node": 57.2116,
        "meta_arg_of_pericenter": 290.4683,
        "meta_mean_anomaly": 69.5995,
        "meta_ephemeris_type": 0,
        "meta_classification_type": "U",
        "meta_norad_cat_id": 28220,
        "meta_element_set_no": 999,
        "meta_rev_at_epoch": 18385,
        "meta_bstar": 0.00033294584,
        "meta_mean_motion_dot": 9.113e-05,
        "meta_mean_motion_ddot": 0,
        "tle_line1": "1 28220U 04012A   25355.17454168  .00009113  00000+0  33295-3 0  9995",
        "tle_line2": "2 28220  97.8926  57.2116 0005217 290.4683  69.5995 15.28343782183857"
      },
      "geometry": {
        "type": "Point",
        "coordinates": [
          96.44139194770705,
          -77.41368183206174
        ]
      }
    },
    {
      "type": "Feature",
      "properties": {
        "norad_id": 28376,
        "name": "AURA",
        "group": "resource",
        "lat": -64.85460589492264,
        "lon": 108.05121146078129,
        "alt_km": 698.1527532285281,
        "timestamp": "2025-12-21T22:41:41.104047+00:00",
        "meta_object_name": "AURA",
        "meta_object_id": "2004-026A",
        "meta_epoch": "2025-12-21T13:21:10.683360",
        "meta_mean_motion": 14.60965189,
        "meta_eccentricity": 0.00013851,
        "meta_inclination": 98.3197,
        "meta_ra_of_asc_node": 305.8244,
        "meta_arg_of_pericenter": 92.4714,
        "meta_mean_anomaly": 267.6645,
        "meta_ephemeris_type": 0,
        "meta_classification_type": "U",
        "meta_norad_cat_id": 28376,
        "meta_element_set_no": 999,
        "meta_rev_at_epoch": 14027,
        "meta_bstar": 0.00017333817,
        "meta_mean_motion_dot": 8.02e-06,
        "meta_mean_motion_ddot": 0,
        "tle_line1": "1 28376U 04026A   25355.55637365  .00000802  00000+0  17334-3 0  9998",
        "tle_line2": "2 28376  98.3197 305.8244 0001385  92.4714 267.6645 14.60965189140274"
      },
      "geometry": {
        "type": "Point",
        "coordinates": [
          108.05121146078129,
          -64.85460589492264
        ]
      }
    },
    {
      "type": "Feature",
      "properties": {
        "norad_id": 28649,
        "name": "IRS-P5 (CARTOSAT-1)",
        "group": "resource",
        "lat": -6.504688106659109,
        "lon": 22.81674488412885,
        "alt_km": 600.1511167628623,
        "timestamp": "2025-12-21T22:41:41.104057+00:00",
        "meta_object_name": "IRS-P5 (CARTOSAT-1)",
        "meta_object_id": "2005-017A",
        "meta_epoch": "2025-12-21T01:46:39.296352",
        "meta_mean_motion": 14.90430022,
        "meta_eccentricity": 7.415e-05,
        "meta_inclination": 97.5484,
        "meta_ra_of_asc_node": 21.1176,
        "meta_arg_of_pericenter": 52.3695,
        "meta_mean_anomaly": 307.7591,
        "meta_ephemeris_type": 0,
        "meta_classification_type": "U",
        "meta_norad_cat_id": 28649,
        "meta_element_set_no": 999,
        "meta_rev_at_epoch": 11728,
        "meta_bstar": 0.00011252547,
        "meta_mean_motion_dot": 1.044e-05,
        "meta_mean_motion_ddot": 0,
        "tle_line1": "1 28649U 05017A   25355.07406593  .00001044  00000+0  11253-3 0  9999",
        "tle_line2": "2 28649  97.5484  21.1176 0000741  52.3695 307.7591 14.90430022117284"
      },
      "geometry": {
        "type": "Point",
        "coordinates": [
          22.81674488412885,
          -6.504688106659109
        ]
      }
    },
    {
      "type": "Feature",
      "properties": {
        "norad_id": 28893,
        "name": "SINAH 1",
        "group": "resource",
        "lat": -12.231969142391101,
        "lon": -57.27731662433727,
        "alt_km": 683.3008527159991,
        "timestamp": "2025-12-21T22:41:41.104068+00:00",
        "meta_object_name": "SINAH 1",
        "meta_object_id": "2005-043D",
        "meta_epoch": "2025-12-21T13:37:08.964768",
        "meta_mean_motion": 14.63971154,
        "meta_eccentricity": 0.00156665,
        "meta_inclination": 98.2609,
        "meta_ra_of_asc_node": 124.1485,
        "meta_arg_of_pericenter": 111.1988,
        "meta_mean_anomaly": 249.0889,
        "meta_ephemeris_type": 0,
        "meta_classification_type": "U",
        "meta_norad_cat_id": 28893,
        "meta_element_set_no": 999,
        "meta_rev_at_epoch": 7453,
        "meta_bstar": 7.7507759e-05,
        "meta_mean_motion_dot": 3.57e-06,
        "meta_mean_motion_ddot": 0,
        "tle_line1": "1 28893U 05043D   25355.56746487  .00000357  00000+0  77508-4 0  9994",
        "tle_line2": "2 28893  98.2609 124.1485 0015666 111.1988 249.0889 14.63971154 74534"
      },
      "geometry": {
        "type": "Point",
        "coordinates": [
          -57.27731662433727,
          -12.231969142391101
        ]
      }
    },
    {
      "type": "Feature",
      "properties": {
        "norad_id": 29079,
        "name": "EROS B",
        "group": "resource",
        "lat": 77.60898712317072,
        "lon": -31.061183594119075,
        "alt_km": 350.74798715826273,
        "timestamp": "2025-12-21T22:41:41.104079+00:00",
        "meta_object_name": "EROS B",
        "meta_object_id": "2006-014A",
        "meta_epoch": "2025-12-21T14:37:37.778592",
        "meta_mean_motion": 15.70953571,
        "meta_eccentricity": 0.00036618,
        "meta_inclination": 97.3462,
        "meta_ra_of_asc_node": 112.6239,
        "meta_arg_of_pericenter": 311.9506,
        "meta_mean_anomaly": 48.1445,
        "meta_ephemeris_type": 0,
        "meta_classification_type": "U",
        "meta_norad_cat_id": 29079,
        "meta_element_set_no": 999,
        "meta_rev_at_epoch": 9219,
        "meta_bstar": 0.0012964411,
        "meta_mean_motion_dot": 0.00164661,
        "meta_mean_motion_ddot": 0,
        "tle_line1": "1 29079U 06014A   25355.60946503  .00164661  00000+0  12964-2 0  9998",
        "tle_line2": "2 29079  97.3462 112.6239 0003661 311.9506  48.1445 15.70953571 92195"
      },
      "geometry": {
        "type": "Point",
        "coordinates": [
          -31.061183594119075,
          77.60898712317072
        ]
      }
    },
    {
      "type": "Feature",
      "properties": {
        "norad_id": 29228,
        "name": "RESURS-DK 1",
        "group": "resource",
        "lat": -63.24655646066591,
        "lon": 31.57087350797048,
        "alt_km": 532.2776976315827,
        "timestamp": "2025-12-21T22:41:41.104090+00:00",
        "meta_object_name": "RESURS-DK 1",
        "meta_object_id": "2006-021A",
        "meta_epoch": "2025-12-21T13:29:13.155648",
        "meta_mean_motion": 15.1220531,
        "meta_eccentricity": 0.00068644,
        "meta_inclination": 69.9338,
        "meta_ra_of_asc_node": 79.0386,
        "meta_arg_of_pericenter": 251.3709,
        "meta_mean_anomaly": 108.6712,
        "meta_ephemeris_type": 0,
        "meta_classification_type": "U",
        "meta_norad_cat_id": 29228,
        "meta_element_set_no": 999,
        "meta_rev_at_epoch": 7571,
        "meta_bstar": 0.00012204593,
        "meta_mean_motion_dot": 2.006e-05,
        "meta_mean_motion_ddot": 0,
        "tle_line1": "1 29228U 06021A   25355.56195782  .00002006  00000+0  12205-3 0  9995",
        "tle_line2": "2 29228  69.9338  79.0386 0006864 251.3709 108.6712 15.12205310 75712"
      },
      "geometry": {
        "type": "Point",
        "coordinates": [
          31.57087350797048,
          -63.24655646066591
        ]
      }
    }
  ]
}